{
  "type": "FeatureCollection",
  "features": [
    {
      "type": "Feature",
      "properties": {
        "norad_id": 34350,
        "name": "IRIDIUM 33 DEB",
        "group": "iridium-33-debris",
        "lat": 53.23473006734501,
        "lon": 4.284714893746282,
        "alt_km": 726.7717676828033,
        "timestamp": "2025-12-20T16:47:36.669525+00:00",
        "meta_object_name": "IRIDIUM 33 DEB",
        "meta_object_id": "1997-051ES",
        "meta_epoch": "2025-12-20T12:08:32.676000",
        "meta_mean_motion": 14.4540342,
        "meta_eccentricity": 0.0023357,
        "meta_inclination": 86.3272,
        "meta_ra_of_asc_node": 359.437,
        "meta_arg_of_pericenter": 111.3737,
        "meta_mean_anomaly": 14.544,
        "meta_ephemeris_type": 0,
        "meta_classification_type": "U",
        "meta_norad_cat_id": 34350,
        "meta_element_set_no": 999,
        "meta_rev_at_epoch": 88405,
        "meta_bstar": 0.00023375,
        "meta_mean_motion_dot": 8.45e-06,
        "meta_mean_motion_ddot": 0,
        "tle_line1": "1 34350U 97051ES  25354.50593375  .00000845  00000+0  23375-3 0  9992",
        "tle_line2": "2 34350  86.3272 359.4370 0023357 111.3737  14.5440 14.45403420884059"
      },
      "geometry": {
        "type": "Point",
        "coordinates": [
          4.284714893746282,
          53.23473006734501
        ]
      }
    },
    {
      "type": "Feature",
      "properties": {
        "norad_id": 34366,
        "name": "IRIDIUM 33 DEB",
        "group": "iridium-33-debris",
        "lat": -86.33051372915652,
        "lon": -36.093575977999244,
        "alt_km": 734.5509922881283,
        "timestamp": "2025-12-20T16:47:36.669535+00:00",
        "meta_object_name": "IRIDIUM 33 DEB",
        "meta_object_id": "1997-051FJ",
        "meta_epoch": "2025-12-20T04:14:24.390816",
        "meta_mean_motion": 14.54111544,
        "meta_eccentricity": 0.00229649,
        "meta_inclination": 86.369,
        "meta_ra_of_asc_node": 46.079,
        "meta_arg_of_pericenter": 116.4779,
        "meta_mean_anomaly": 297.5797,
        "meta_ephemeris_type": 0,
        "meta_classification_type": "U",
        "meta_norad_cat_id": 34366,
        "meta_element_set_no": 999,
        "meta_rev_at_epoch": 88290,
        "meta_bstar": 0.00060148679,
        "meta_mean_motion_dot": 2.57e-05,
        "meta_mean_motion_ddot": 0,
        "tle_line1": "1 34366U 97051FJ  25354.17667119  .00002570  00000+0  60149-3 0  9997",
        "tle_line2": "2 34366  86.3690  46.0790 0022964 116.4779 297.5797 14.54111544882903"
      },
      "geometry": {
        "type": "Point",
        "coordinates": [
          -36.093575977999244,
          -86.33051372915652
        ]
      }
    },
    {
      "type": "Feature",
      "properties": {
        "norad_id": 34375,
        "name": "IRIDIUM 33 DEB",
        "group": "iridium-33-debris",
        "lat": -53.64195893272774,
        "lon": 4.353692109747408,
        "alt_km": 888.6815707773612,
        "timestamp": "2025-12-20T16:47:36.669546+00:00",
        "meta_object_name": "IRIDIUM 33 DEB",
        "meta_object_id": "1997-051FT",
        "meta_epoch": "2025-12-20T12:24:40.051008",
        "meta_mean_motion": 14.18005586,
        "meta_eccentricity": 0.0103691,
        "meta_inclination": 86.4321,
        "meta_ra_of_asc_node": 179.5653,
        "meta_arg_of_pericenter": 102.408,
        "meta_mean_anomaly": 278.8624,
        "meta_ephemeris_type": 0,
        "meta_classification_type": "U",
        "meta_norad_cat_id": 34375,
        "meta_element_set_no": 999,
        "meta_rev_at_epoch": 86822,
        "meta_bstar": 0.0003126,
        "meta_mean_motion_dot": 6.95e-06,
        "meta_mean_motion_ddot": 0,
        "tle_line1": "1 34375U 97051FT  25354.51713022  .00000695  00000+0  31260-3 0  9998",
        "tle_line2": "2 34375  86.4321 179.5653 0103691 102.4080 278.8624 14.18005586868220"
      },
      "geometry": {
        "type": "Point",
        "coordinates": [
          4.353692109747408,
          -53.64195893272774
        ]
      }
    },
    {
      "type": "Feature",
      "properties": {
        "norad_id": 34376,
        "name": "IRIDIUM 33 DEB",
        "group": "iridium-33-debris",
        "lat": 80.98541324275496,
        "lon": 27.04998472840639,
        "alt_km": 666.8659738092292,
        "timestamp": "2025-12-20T16:47:36.669556+00:00",
        "meta_object_name": "IRIDIUM 33 DEB",
        "meta_object_id": "1997-051FU",
        "meta_epoch": "2025-12-20T11:29:41.972928",
        "meta_mean_motion": 14.6266394,
        "meta_eccentricity": 0.0028066,
        "meta_inclination": 86.2976,
        "meta_ra_of_asc_node": 3.0602,
        "meta_arg_of_pericenter": 141.121,
        "meta_mean_anomaly": 219.2028,
        "meta_ephemeris_type": 0,
        "meta_classification_type": "U",
        "meta_norad_cat_id": 34376,
        "meta_element_set_no": 999,
        "meta_rev_at_epoch": 88120,
        "meta_bstar": 0.00090518,
        "meta_mean_motion_dot": 4.652e-05,
        "meta_mean_motion_ddot": 0,
        "tle_line1": "1 34376U 97051FU  25354.47895802  .00004652  00000+0  90518-3 0  9999",
        "tle_line2": "2 34376  86.2976   3.0602 0028066 141.1210 219.2028 14.62663940881200"
      },
      "geometry": {
        "type": "Point",
        "coordinates": [
          27.04998472840639,
          80.98541324275496
        ]
      }
    },
    {
      "type": "Feature",
      "properties": {
        "norad_id": 34486,
        "name": "IRIDIUM 33 DEB",
        "group": "iridium-33-debris",
        "lat": 6.656254947491465,
        "lon": -172.0718913970741,
        "alt_km": 580.1223610223624,
        "timestamp": "2025-12-20T16:47:36.669567+00:00",
        "meta_object_name": "IRIDIUM 33 DEB",
        "meta_object_id": "1997-051GB",
        "meta_epoch": "2025-12-20T00:04:17.796000",
        "meta_mean_motion": 14.96101928,
        "meta_eccentricity": 0.0013908,
        "meta_inclination": 86.3929,
        "meta_ra_of_asc_node": 8.6716,
        "meta_arg_of_pericenter": 91.5412,
        "meta_mean_anomaly": 291.3403,
        "meta_ephemeris_type": 0,
        "meta_classification_type": "U",
        "meta_norad_cat_id": 34486,
        "meta_element_set_no": 999,
        "meta_rev_at_epoch": 89095,
        "meta_bstar": 0.0013547,
        "meta_mean_motion_dot": 0.00015301,
        "meta_mean_motion_ddot": 0,
        "tle_line1": "1 34486U 97051GB  25354.00298375  .00015301  00000+0  13547-2 0  9991",
        "tle_line2": "2 34486  86.3929   8.6716 0013908  91.5412 291.3403 14.96101928890959"
      },
      "geometry": {
        "type": "Point",
        "coordinates": [
          -172.0718913970741,
          6.656254947491465
        ]
      }
    },
    {
      "type": "Feature",
      "properties": {
        "norad_id": 34487,
        "name": "IRIDIUM 33 DEB",
        "group": "iridium-33-debris",
        "lat": 60.79838597702964,
        "lon": -177.6205971648431,
        "alt_km": 719.2208486770369,
        "timestamp": "2025-12-20T16:47:36.669577+00:00",
        "meta_object_name": "IRIDIUM 33 DEB",
        "meta_object_id": "1997-051GC",
        "meta_epoch": "2025-12-20T11:57:25.083072",
        "meta_mean_motion": 14.43225278,
        "meta_eccentricity": 0.0033198,
        "meta_inclination": 86.343,
        "meta_ra_of_asc_node": 9.0367,
        "meta_arg_of_pericenter": 104.2431,
        "meta_mean_anomaly": 48.2266,
        "meta_ephemeris_type": 0,
        "meta_classification_type": "U",
        "meta_norad_cat_id": 34487,
        "meta_element_set_no": 999,
        "meta_rev_at_epoch": 88360,
        "meta_bstar": 0.00013261,
        "meta_mean_motion_dot": 4.69e-06,
        "meta_mean_motion_ddot": 0,
        "tle_line1": "1 34487U 97051GC  25354.49820698  .00000469  00000+0  13261-3 0  9997",
        "tle_line2": "2 34487  86.3430   9.0367 0033198 104.2431  48.2266 14.43225278883607"
      },
      "geometry": {
        "type": "Point",
        "coordinates": [
          -177.6205971648431,
          60.79838597702964
        ]
      }
    },
    {
      "type": "Feature",
      "properties": {
        "norad_id": 34488,
        "name": "IRIDIUM 33 DEB",
        "group": "iridium-33-debris",
        "lat": 61.228569245174455,
        "lon": -51.41327619658434,
        "alt_km": 459.27933992420367,
        "timestamp": "2025-12-20T16:47:36.669587+00:00",
        "meta_object_name": "IRIDIUM 33 DEB",
        "meta_object_id": "1997-051GD",
        "meta_epoch": "2025-12-20T00:50:30.763392",
        "meta_mean_motion": 15.31136537,
        "meta_eccentricity": 0.00111988,
        "meta_inclination": 86.3246,
        "meta_ra_of_asc_node": 302.194,
        "meta_arg_of_pericenter": 39.0214,
        "meta_mean_anomaly": 321.1841,
        "meta_ephemeris_type": 0,
        "meta_classification_type": "U",
        "meta_norad_cat_id": 34488,
        "meta_element_set_no": 999,
        "meta_rev_at_epoch": 89351,
        "meta_bstar": 0.0029700032,
        "meta_mean_motion_dot": 0.00090383,
        "meta_mean_motion_ddot": 0,
        "tle_line1": "1 34488U 97051GD  25354.03507828  .00090383  00000+0  29700-2 0  9993",
        "tle_line2": "2 34488  86.3246 302.1940 0011198  39.0214 321.1841 15.31136537893517"
      },
      "geometry": {
        "type": "Point",
        "coordinates": [
          -51.41327619658434,
          61.228569245174455
        ]
      }
    }
  ]
}